STARLINK-35498          
1 67017U 25293Q   26009.16668980  .00053298  00000+0  86446-3 0  9990
2 67017  69.9996 246.3378 0003277 271.6964 198.9518 15.52480493  4699
STARLINK-36106          
1 67018U 25293R   26009.16668980  .00056967  00000+0  92342-3 0  9999
2 67018  69.9997 246.3354 0003441 273.1984 199.3674 15.52478069  4613
STARLINK-35688          
1 67019U 25293S   26009.16668980  .00055069  00000+0  89291-3 0  9991
2 67019  69.9997 246.3333 0003422 274.3399 200.1398 15.52479580  4694
STARLINK-36172          
1 67020U 25293T   26009.08145098  .00064337  00000+0  10402-2 0  9999
2 67020  70.0053 246.5706 0002871 240.5688 119.5213 15.52517319  5908
STARLINK-36184          
1 67021U 25293U   26009.16668980  .00056531  00000+0  91645-3 0  9995
2 67021  69.9997 246.3285 0003263 275.0029 203.3131 15.52477804  4613
STARLINK-36209          
1 67022U 25293V   26009.16668980  .00050321  00000+0  81653-3 0  9995
2 67022  69.9996 246.3263 0003384 274.8507 205.3790 15.52483286  4615
STARLINK-36191          
1 67023U 25293W   26009.16668980  .00051812  00000+0  84061-3 0  9998
2 67023  69.9996 246.3240 0003405 275.1566 206.9922 15.52479268  4501
STARLINK-36192          
1 67024U 25293X   26008.62905756  .00134763  00000+0  21529-2 0  9990
2 67024  69.9994 247.7950 0003989 268.0688  92.0042 15.52561452  5848
STARLINK-36178          
1 67025U 25293Y   26009.07973010  .00100216  00000+0  16087-2 0  9998
2 67025  70.0030 246.5587 0003078 283.5362  76.5482 15.52564063  5910
STARLINK-36176          
1 67026U 25293Z   26009.16668980  .00051320  00000+0  83263-3 0  9998
2 67026  69.9996 246.3150 0003434 274.1835 215.6287 15.52481757  4613
STARLINK-36171          
1 67027U 25293AA  26009.07938863  .00069379  00000+0  11201-2 0  9994
2 67027  69.9998 246.5570 0003262 264.4961  95.5854 15.52533337  5916
STARLINK-36132          
1 67028U 25293AB  26009.07835916  .00054424  00000+0  88052-3 0  9994
2 67028  70.0006 246.5522 0003968 281.7910  78.2832 15.52541942  5911
