CCSDS_OMM_VERS = 2.0
CREATION_DATE  = 
ORIGINATOR     = 

OBJECT_NAME    = STARLINK-35498
OBJECT_ID      = 2025-293Q
CENTER_NAME    = EARTH
REF_FRAME      = TEME
TIME_SYSTEM    = UTC
MEAN_ELEMENT_THEORY = SGP/SGP4

EPOCH          = 2026-01-09T04:00:01.998720
MEAN_MOTION    = 15.52480493
ECCENTRICITY   = .0003277
INCLINATION    = 69.9996
RA_OF_ASC_NODE = 246.3378
ARG_OF_PERICENTER = 271.6964
MEAN_ANOMALY   = 198.9518

EPHEMERIS_TYPE = 0
CLASSIFICATION_TYPE = U
NORAD_CAT_ID   = 67017
ELEMENT_SET_NO = 999
REV_AT_EPOCH   = 469
BSTAR          = .86446E-3
MEAN_MOTION_DOT = .53298E-3
MEAN_MOTION_DDOT = 0

CCSDS_OMM_VERS = 2.0
CREATION_DATE  = 
ORIGINATOR     = 

OBJECT_NAME    = STARLINK-36106
OBJECT_ID      = 2025-293R
CENTER_NAME    = EARTH
REF_FRAME      = TEME
TIME_SYSTEM    = UTC
MEAN_ELEMENT_THEORY = SGP/SGP4

EPOCH          = 2026-01-09T04:00:01.998720
MEAN_MOTION    = 15.52478069
ECCENTRICITY   = .0003441
INCLINATION    = 69.9997
RA_OF_ASC_NODE = 246.3354
ARG_OF_PERICENTER = 273.1984
MEAN_ANOMALY   = 199.3674

EPHEMERIS_TYPE = 0
CLASSIFICATION_TYPE = U
NORAD_CAT_ID   = 67018
ELEMENT_SET_NO = 999
REV_AT_EPOCH   = 461
BSTAR          = .92342E-3
MEAN_MOTION_DOT = .56967E-3
MEAN_MOTION_DDOT = 0

CCSDS_OMM_VERS = 2.0
CREATION_DATE  = 
ORIGINATOR     = 

OBJECT_NAME    = STARLINK-35688
OBJECT_ID      = 2025-293S
CENTER_NAME    = EARTH
REF_FRAME      = TEME
TIME_SYSTEM    = UTC
MEAN_ELEMENT_THEORY = SGP/SGP4

EPOCH          = 2026-01-09T04:00:01.998720
MEAN_MOTION    = 15.52479580
ECCENTRICITY   = .0003422
INCLINATION    = 69.9997
RA_OF_ASC_NODE = 246.3333
ARG_OF_PERICENTER = 274.3399
MEAN_ANOMALY   = 200.1398

EPHEMERIS_TYPE = 0
CLASSIFICATION_TYPE = U
NORAD_CAT_ID   = 67019
ELEMENT_SET_NO = 999
REV_AT_EPOCH   = 469
BSTAR          = .89291E-3
MEAN_MOTION_DOT = .55069E-3
MEAN_MOTION_DDOT = 0

CCSDS_OMM_VERS = 2.0
CREATION_DATE  = 
ORIGINATOR     = 

OBJECT_NAME    = STARLINK-36172
OBJECT_ID      = 2025-293T
CENTER_NAME    = EARTH
REF_FRAME      = TEME
TIME_SYSTEM    = UTC
MEAN_ELEMENT_THEORY = SGP/SGP4

EPOCH          = 2026-01-09T01:57:17.364672
MEAN_MOTION    = 15.52517319
ECCENTRICITY   = .0002871
INCLINATION    = 70.0053
RA_OF_ASC_NODE = 246.5706
ARG_OF_PERICENTER = 240.5688
MEAN_ANOMALY   = 119.5213

EPHEMERIS_TYPE = 0
CLASSIFICATION_TYPE = U
NORAD_CAT_ID   = 67020
ELEMENT_SET_NO = 999
REV_AT_EPOCH   = 590
BSTAR          = .10402E-2
MEAN_MOTION_DOT = .64337E-3
MEAN_MOTION_DDOT = 0

CCSDS_OMM_VERS = 2.0
CREATION_DATE  = 
ORIGINATOR     = 

OBJECT_NAME    = STARLINK-36184
OBJECT_ID      = 2025-293U
CENTER_NAME    = EARTH
REF_FRAME      = TEME
TIME_SYSTEM    = UTC
MEAN_ELEMENT_THEORY = SGP/SGP4

EPOCH          = 2026-01-09T04:00:01.998720
MEAN_MOTION    = 15.52477804
ECCENTRICITY   = .0003263
INCLINATION    = 69.9997
RA_OF_ASC_NODE = 246.3285
ARG_OF_PERICENTER = 275.0029
MEAN_ANOMALY   = 203.3131

EPHEMERIS_TYPE = 0
CLASSIFICATION_TYPE = U
NORAD_CAT_ID   = 67021
ELEMENT_SET_NO = 999
REV_AT_EPOCH   = 461
BSTAR          = .91645E-3
MEAN_MOTION_DOT = .56531E-3
MEAN_MOTION_DDOT = 0

CCSDS_OMM_VERS = 2.0
CREATION_DATE  = 
ORIGINATOR     = 

OBJECT_NAME    = STARLINK-36209
OBJECT_ID      = 2025-293V
CENTER_NAME    = EARTH
REF_FRAME      = TEME
TIME_SYSTEM    = UTC
MEAN_ELEMENT_THEORY = SGP/SGP4

EPOCH          = 2026-01-09T04:00:01.998720
MEAN_MOTION    = 15.52483286
ECCENTRICITY   = .0003384
INCLINATION    = 69.9996
RA_OF_ASC_NODE = 246.3263
ARG_OF_PERICENTER = 274.8507
MEAN_ANOMALY   = 205.3790

EPHEMERIS_TYPE = 0
CLASSIFICATION_TYPE = U
NORAD_CAT_ID   = 67022
ELEMENT_SET_NO = 999
REV_AT_EPOCH   = 461
BSTAR          = .81653E-3
MEAN_MOTION_DOT = .50321E-3
MEAN_MOTION_DDOT = 0

CCSDS_OMM_VERS = 2.0
CREATION_DATE  = 
ORIGINATOR     = 

OBJECT_NAME    = STARLINK-36191
OBJECT_ID      = 2025-293W
CENTER_NAME    = EARTH
REF_FRAME      = TEME
TIME_SYSTEM    = UTC
MEAN_ELEMENT_THEORY = SGP/SGP4

EPOCH          = 2026-01-09T04:00:01.998720
MEAN_MOTION    = 15.52479268
ECCENTRICITY   = .0003405
INCLINATION    = 69.9996
RA_OF_ASC_NODE = 246.3240
ARG_OF_PERICENTER = 275.1566
MEAN_ANOMALY   = 206.9922

EPHEMERIS_TYPE = 0
CLASSIFICATION_TYPE = U
NORAD_CAT_ID   = 67023
ELEMENT_SET_NO = 999
REV_AT_EPOCH   = 450
BSTAR          = .84061E-3
MEAN_MOTION_DOT = .51812E-3
MEAN_MOTION_DDOT = 0

CCSDS_OMM_VERS = 2.0
CREATION_DATE  = 
ORIGINATOR     = 

OBJECT_NAME    = STARLINK-36192
OBJECT_ID      = 2025-293X
CENTER_NAME    = EARTH
REF_FRAME      = TEME
TIME_SYSTEM    = UTC
MEAN_ELEMENT_THEORY = SGP/SGP4

EPOCH          = 2026-01-08T15:05:50.573184
MEAN_MOTION    = 15.52561452
ECCENTRICITY   = .00039896
INCLINATION    = 69.9994
RA_OF_ASC_NODE = 247.7950
ARG_OF_PERICENTER = 268.0688
MEAN_ANOMALY   = 92.0042

EPHEMERIS_TYPE = 0
CLASSIFICATION_TYPE = U
NORAD_CAT_ID   = 67024
ELEMENT_SET_NO = 999
REV_AT_EPOCH   = 584
BSTAR          = .21528695E-2
MEAN_MOTION_DOT = .134763E-2
MEAN_MOTION_DDOT = 0

CCSDS_OMM_VERS = 2.0
CREATION_DATE  = 
ORIGINATOR     = 

OBJECT_NAME    = STARLINK-36178
OBJECT_ID      = 2025-293Y
CENTER_NAME    = EARTH
REF_FRAME      = TEME
TIME_SYSTEM    = UTC
MEAN_ELEMENT_THEORY = SGP/SGP4

EPOCH          = 2026-01-09T01:54:48.680640
MEAN_MOTION    = 15.52564063
ECCENTRICITY   = .0003078
INCLINATION    = 70.0030
RA_OF_ASC_NODE = 246.5587
ARG_OF_PERICENTER = 283.5362
MEAN_ANOMALY   = 76.5482

EPHEMERIS_TYPE = 0
CLASSIFICATION_TYPE = U
NORAD_CAT_ID   = 67025
ELEMENT_SET_NO = 999
REV_AT_EPOCH   = 591
BSTAR          = .16087E-2
MEAN_MOTION_DOT = .100216E-2
MEAN_MOTION_DDOT = 0

CCSDS_OMM_VERS = 2.0
CREATION_DATE  = 
ORIGINATOR     = 

OBJECT_NAME    = STARLINK-36176
OBJECT_ID      = 2025-293Z
CENTER_NAME    = EARTH
REF_FRAME      = TEME
TIME_SYSTEM    = UTC
MEAN_ELEMENT_THEORY = SGP/SGP4

EPOCH          = 2026-01-09T04:00:01.998720
MEAN_MOTION    = 15.52481757
ECCENTRICITY   = .0003434
INCLINATION    = 69.9996
RA_OF_ASC_NODE = 246.3150
ARG_OF_PERICENTER = 274.1835
MEAN_ANOMALY   = 215.6287

EPHEMERIS_TYPE = 0
CLASSIFICATION_TYPE = U
NORAD_CAT_ID   = 67026
ELEMENT_SET_NO = 999
REV_AT_EPOCH   = 461
BSTAR          = .83263E-3
MEAN_MOTION_DOT = .5132E-3
MEAN_MOTION_DDOT = 0

CCSDS_OMM_VERS = 2.0
CREATION_DATE  = 
ORIGINATOR     = 

OBJECT_NAME    = STARLINK-36171
OBJECT_ID      = 2025-293AA
CENTER_NAME    = EARTH
REF_FRAME      = TEME
TIME_SYSTEM    = UTC
MEAN_ELEMENT_THEORY = SGP/SGP4

EPOCH          = 2026-01-09T01:54:19.177632
MEAN_MOTION    = 15.52533337
ECCENTRICITY   = .0003262
INCLINATION    = 69.9998
RA_OF_ASC_NODE = 246.5570
ARG_OF_PERICENTER = 264.4961
MEAN_ANOMALY   = 95.5854

EPHEMERIS_TYPE = 0
CLASSIFICATION_TYPE = U
NORAD_CAT_ID   = 67027
ELEMENT_SET_NO = 999
REV_AT_EPOCH   = 591
BSTAR          = .11201E-2
MEAN_MOTION_DOT = .69379E-3
MEAN_MOTION_DDOT = 0

CCSDS_OMM_VERS = 2.0
CREATION_DATE  = 
ORIGINATOR     = 

OBJECT_NAME    = STARLINK-36132
OBJECT_ID      = 2025-293AB
CENTER_NAME    = EARTH
REF_FRAME      = TEME
TIME_SYSTEM    = UTC
MEAN_ELEMENT_THEORY = SGP/SGP4

EPOCH          = 2026-01-09T01:52:50.231424
MEAN_MOTION    = 15.52541942
ECCENTRICITY   = .0003968
INCLINATION    = 70.0006
RA_OF_ASC_NODE = 246.5522
ARG_OF_PERICENTER = 281.7910
MEAN_ANOMALY   = 78.2832

EPHEMERIS_TYPE = 0
CLASSIFICATION_TYPE = U
NORAD_CAT_ID   = 67028
ELEMENT_SET_NO = 999
REV_AT_EPOCH   = 591
BSTAR          = .88052E-3
MEAN_MOTION_DOT = .54424E-3
MEAN_MOTION_DDOT = 0

